CCSDS_OMM_VERS = 2.0
CREATION_DATE  = 
ORIGINATOR     = 

OBJECT_NAME    = STARLINK-36590
OBJECT_ID      = 2026-016S
CENTER_NAME    = EARTH
REF_FRAME      = TEME
TIME_SYSTEM    = UTC
MEAN_ELEMENT_THEORY = SGP/SGP4

EPOCH          = 2026-02-16T20:00:04.000032
MEAN_MOTION    = 15.75226147
ECCENTRICITY   = .0001678
INCLINATION    = 97.2841
RA_OF_ASC_NODE = 107.2745
ARG_OF_PERICENTER = 71.9646
MEAN_ANOMALY   = 127.3685

EPHEMERIS_TYPE = 0
CLASSIFICATION_TYPE = U
NORAD_CAT_ID   = 67577
ELEMENT_SET_NO = 999
REV_AT_EPOCH   = 469
BSTAR          = -.8187E-3
MEAN_MOTION_DOT = -.120729E-2
MEAN_MOTION_DDOT = 0

CCSDS_OMM_VERS = 2.0
CREATION_DATE  = 
ORIGINATOR     = 

OBJECT_NAME    = STARLINK-36613
OBJECT_ID      = 2026-016T
CENTER_NAME    = EARTH
REF_FRAME      = TEME
TIME_SYSTEM    = UTC
MEAN_ELEMENT_THEORY = SGP/SGP4

EPOCH          = 2026-02-16T18:48:05.768640
MEAN_MOTION    = 15.80907594
ECCENTRICITY   = .0001568
INCLINATION    = 97.2845
RA_OF_ASC_NODE = 107.2571
ARG_OF_PERICENTER = 94.5237
MEAN_ANOMALY   = 265.6211

EPHEMERIS_TYPE = 0
CLASSIFICATION_TYPE = U
NORAD_CAT_ID   = 67578
ELEMENT_SET_NO = 999
REV_AT_EPOCH   = 351
BSTAR          = .17441E-2
MEAN_MOTION_DOT = .349111E-2
MEAN_MOTION_DDOT = 0

CCSDS_OMM_VERS = 2.0
CREATION_DATE  = 
ORIGINATOR     = 

OBJECT_NAME    = STARLINK-36571
OBJECT_ID      = 2026-016U
CENTER_NAME    = EARTH
REF_FRAME      = TEME
TIME_SYSTEM    = UTC
MEAN_ELEMENT_THEORY = SGP/SGP4

EPOCH          = 2026-02-16T14:40:36.409728
MEAN_MOTION    = 15.75237849
ECCENTRICITY   = .00022084
INCLINATION    = 97.2834
RA_OF_ASC_NODE = 107.0320
ARG_OF_PERICENTER = 89.4222
MEAN_ANOMALY   = 270.7297

EPHEMERIS_TYPE = 0
CLASSIFICATION_TYPE = U
NORAD_CAT_ID   = 67579
ELEMENT_SET_NO = 999
REV_AT_EPOCH   = 348
BSTAR          = .11584505E-2
MEAN_MOTION_DOT = .176654E-2
MEAN_MOTION_DDOT = 0

CCSDS_OMM_VERS = 2.0
CREATION_DATE  = 
ORIGINATOR     = 

OBJECT_NAME    = STARLINK-36612
OBJECT_ID      = 2026-016V
CENTER_NAME    = EARTH
REF_FRAME      = TEME
TIME_SYSTEM    = UTC
MEAN_ELEMENT_THEORY = SGP/SGP4

EPOCH          = 2026-02-16T14:10:53.015232
MEAN_MOTION    = 15.80879516
ECCENTRICITY   = .00010829
INCLINATION    = 97.2849
RA_OF_ASC_NODE = 107.0602
ARG_OF_PERICENTER = 83.5629
MEAN_ANOMALY   = 276.5763

EPHEMERIS_TYPE = 0
CLASSIFICATION_TYPE = U
NORAD_CAT_ID   = 67580
ELEMENT_SET_NO = 999
REV_AT_EPOCH   = 348
BSTAR          = .86186942E-3
MEAN_MOTION_DOT = .168664E-2
MEAN_MOTION_DDOT = 0

CCSDS_OMM_VERS = 2.0
CREATION_DATE  = 
ORIGINATOR     = 

OBJECT_NAME    = STARLINK-36632
OBJECT_ID      = 2026-016W
CENTER_NAME    = EARTH
REF_FRAME      = TEME
TIME_SYSTEM    = UTC
MEAN_ELEMENT_THEORY = SGP/SGP4

EPOCH          = 2026-02-16T14:00:01.999872
MEAN_MOTION    = 15.75179620
ECCENTRICITY   = .00015968
INCLINATION    = 97.2846
RA_OF_ASC_NODE = 107.0322
ARG_OF_PERICENTER = 109.2133
MEAN_ANOMALY   = 159.2711

EPHEMERIS_TYPE = 0
CLASSIFICATION_TYPE = U
NORAD_CAT_ID   = 67581
ELEMENT_SET_NO = 999
REV_AT_EPOCH   = 465
BSTAR          = .39928115E-3
MEAN_MOTION_DOT = .59818E-3
MEAN_MOTION_DDOT = 0

CCSDS_OMM_VERS = 2.0
CREATION_DATE  = 
ORIGINATOR     = 

OBJECT_NAME    = STARLINK-36609
OBJECT_ID      = 2026-016X
CENTER_NAME    = EARTH
REF_FRAME      = TEME
TIME_SYSTEM    = UTC
MEAN_ELEMENT_THEORY = SGP/SGP4

EPOCH          = 2026-02-16T14:46:12.069408
MEAN_MOTION    = 15.75209806
ECCENTRICITY   = .00022173
INCLINATION    = 97.2834
RA_OF_ASC_NODE = 107.0260
ARG_OF_PERICENTER = 67.0990
MEAN_ANOMALY   = 293.0510

EPHEMERIS_TYPE = 0
CLASSIFICATION_TYPE = U
NORAD_CAT_ID   = 67582
ELEMENT_SET_NO = 999
REV_AT_EPOCH   = 348
BSTAR          = .10296661E-2
MEAN_MOTION_DOT = .156438E-2
MEAN_MOTION_DDOT = 0

CCSDS_OMM_VERS = 2.0
CREATION_DATE  = 
ORIGINATOR     = 

OBJECT_NAME    = STARLINK-36577
OBJECT_ID      = 2026-016Y
CENTER_NAME    = EARTH
REF_FRAME      = TEME
TIME_SYSTEM    = UTC
MEAN_ELEMENT_THEORY = SGP/SGP4

EPOCH          = 2026-02-16T14:08:45.744576
MEAN_MOTION    = 15.80917243
ECCENTRICITY   = .00015813
INCLINATION    = 97.2848
RA_OF_ASC_NODE = 107.0615
ARG_OF_PERICENTER = 65.5553
MEAN_ANOMALY   = 294.5880

EPHEMERIS_TYPE = 0
CLASSIFICATION_TYPE = U
NORAD_CAT_ID   = 67583
ELEMENT_SET_NO = 999
REV_AT_EPOCH   = 348
BSTAR          = .14414607E-2
MEAN_MOTION_DOT = .286551E-2
MEAN_MOTION_DDOT = 0

CCSDS_OMM_VERS = 2.0
CREATION_DATE  = 
ORIGINATOR     = 

OBJECT_NAME    = STARLINK-36419
OBJECT_ID      = 2026-016Z
CENTER_NAME    = EARTH
REF_FRAME      = TEME
TIME_SYSTEM    = UTC
MEAN_ELEMENT_THEORY = SGP/SGP4

EPOCH          = 2026-02-16T14:03:04.141440
MEAN_MOTION    = 15.80492441
ECCENTRICITY   = .00014197
INCLINATION    = 97.2841
RA_OF_ASC_NODE = 107.0676
ARG_OF_PERICENTER = 71.0301
MEAN_ANOMALY   = 289.1121

EPHEMERIS_TYPE = 0
CLASSIFICATION_TYPE = U
NORAD_CAT_ID   = 67584
ELEMENT_SET_NO = 999
REV_AT_EPOCH   = 348
BSTAR          = -.16199309E-2
MEAN_MOTION_DOT = -.295765E-2
MEAN_MOTION_DDOT = 0

CCSDS_OMM_VERS = 2.0
CREATION_DATE  = 
ORIGINATOR     = 

OBJECT_NAME    = STARLINK-36560
OBJECT_ID      = 2026-016AA
CENTER_NAME    = EARTH
REF_FRAME      = TEME
TIME_SYSTEM    = UTC
MEAN_ELEMENT_THEORY = SGP/SGP4

EPOCH          = 2026-02-16T14:00:31.508928
MEAN_MOTION    = 15.80935833
ECCENTRICITY   = .00008986
INCLINATION    = 97.2843
RA_OF_ASC_NODE = 107.0697
ARG_OF_PERICENTER = 52.7336
MEAN_ANOMALY   = 307.4014

EPHEMERIS_TYPE = 0
CLASSIFICATION_TYPE = U
NORAD_CAT_ID   = 67585
ELEMENT_SET_NO = 999
REV_AT_EPOCH   = 348
BSTAR          = .15243973E-2
MEAN_MOTION_DOT = .30392E-2
MEAN_MOTION_DDOT = 0

CCSDS_OMM_VERS = 2.0
CREATION_DATE  = 
ORIGINATOR     = 

OBJECT_NAME    = NAVSTAR 85 (USA 581)
OBJECT_ID      = 2026-017A
CENTER_NAME    = EARTH
REF_FRAME      = TEME
TIME_SYSTEM    = UTC
MEAN_ELEMENT_THEORY = SGP/SGP4

EPOCH          = 2026-02-15T13:04:50.078784
MEAN_MOTION    = 2.00561312
ECCENTRICITY   = .00009027
INCLINATION    = 55.0067
RA_OF_ASC_NODE = 93.6366
ARG_OF_PERICENTER = 51.2369
MEAN_ANOMALY   = 308.8521

EPHEMERIS_TYPE = 0
CLASSIFICATION_TYPE = U
NORAD_CAT_ID   = 67588
ELEMENT_SET_NO = 999
REV_AT_EPOCH   = 42917
BSTAR          = 0
MEAN_MOTION_DOT = .17E-6
MEAN_MOTION_DDOT = 0

CCSDS_OMM_VERS = 2.0
CREATION_DATE  = 
ORIGINATOR     = 

OBJECT_NAME    = STARLINK-36641
OBJECT_ID      = 2026-018A
CENTER_NAME    = EARTH
REF_FRAME      = TEME
TIME_SYSTEM    = UTC
MEAN_ELEMENT_THEORY = SGP/SGP4

EPOCH          = 2026-02-16T20:00:04.000032
MEAN_MOTION    = 15.75146713
ECCENTRICITY   = .0001659
INCLINATION    = 97.2852
RA_OF_ASC_NODE = 112.5652
ARG_OF_PERICENTER = 92.9399
MEAN_ANOMALY   = 189.7604

EPHEMERIS_TYPE = 0
CLASSIFICATION_TYPE = U
NORAD_CAT_ID   = 67589
ELEMENT_SET_NO = 999
REV_AT_EPOCH   = 399
BSTAR          = .96921E-3
MEAN_MOTION_DOT = .14667E-2
MEAN_MOTION_DDOT = 0

CCSDS_OMM_VERS = 2.0
CREATION_DATE  = 
ORIGINATOR     = 

OBJECT_NAME    = STARLINK-36376
OBJECT_ID      = 2026-018B
CENTER_NAME    = EARTH
REF_FRAME      = TEME
TIME_SYSTEM    = UTC
MEAN_ELEMENT_THEORY = SGP/SGP4

EPOCH          = 2026-02-16T18:27:50.493024
MEAN_MOTION    = 15.80941250
ECCENTRICITY   = .000059
INCLINATION    = 97.2828
RA_OF_ASC_NODE = 112.5313
ARG_OF_PERICENTER = 89.3218
MEAN_ANOMALY   = 270.8118

EPHEMERIS_TYPE = 0
CLASSIFICATION_TYPE = U
NORAD_CAT_ID   = 67590
ELEMENT_SET_NO = 999
REV_AT_EPOCH   = 401
BSTAR          = .14593E-2
MEAN_MOTION_DOT = .290564E-2
MEAN_MOTION_DDOT = 0

