STARLINK-36590          
1 67577U 26016S   26047.83337963 -.00120729  00000+0 -81870-3 0  9997
2 67577  97.2841 107.2745 0001678  71.9646 127.3685 15.75226147  4697
STARLINK-36613          
1 67578U 26016T   26047.78340010  .00349111  00000+0  17441-2 0  9997
2 67578  97.2845 107.2571 0001568  94.5237 265.6211 15.80907594  3513
STARLINK-36571          
1 67579U 26016U   26047.61153252  .00176654  00000+0  11585-2 0  9993
2 67579  97.2834 107.0320 0002208  89.4222 270.7297 15.75237849  3481
STARLINK-36612          
1 67580U 26016V   26047.59089138  .00168664  00000+0  86187-3 0  9996
2 67580  97.2849 107.0602 0001082  83.5629 276.5763 15.80879516  3488
STARLINK-36632          
1 67581U 26016W   26047.58335648  .00059818  00000+0  39928-3 0  9997
2 67581  97.2846 107.0322 0001596 109.2133 159.2711 15.75179620  4654
STARLINK-36609          
1 67582U 26016X   26047.61541747  .00156438  00000+0  10297-2 0  9994
2 67582  97.2834 107.0260 0002217  67.0990 293.0510 15.75209806  3480
STARLINK-36577          
1 67583U 26016Y   26047.58941834  .00286551  00000+0  14415-2 0  9998
2 67583  97.2848 107.0615 0001581  65.5553 294.5880 15.80917243  3484
STARLINK-36419          
1 67584U 26016Z   26047.58546460 -.00295765  00000+0 -16199-2 0  9995
2 67584  97.2841 107.0676 0001419  71.0301 289.1121 15.80492441  3484
STARLINK-36560          
1 67585U 26016AA  26047.58369802  .00303920  00000+0  15244-2 0  9990
2 67585  97.2843 107.0697 0000898  52.7336 307.4014 15.80935833  3486
NAVSTAR 85 (USA 581)    
1 67588U 26017A   26046.54502406  .00000017  00000+0  00000+0 0  9990
2 67588  55.0067  93.6366 0000902  51.2369 308.8521  2.00561312429179
STARLINK-36641          
1 67589U 26018A   26047.83337963  .00146670  00000+0  96921-3 0  9996
2 67589  97.2852 112.5652 0001659  92.9399 189.7604 15.75146713  3990
STARLINK-36376          
1 67590U 26018B   26047.76933441  .00290564  00000+0  14593-2 0  9999
2 67590  97.2828 112.5313 0000590  89.3218 270.8118 15.80941250  4013
